{
  "type": "FeatureCollection",
  "features": [
    {
      "type": "Feature",
      "properties": {
        "norad_id": 34765,
        "name": "IRIDIUM 33 DEB",
        "group": "iridium-33-debris",
        "lat": 70.31741971016649,
        "lon": 40.22669553173121,
        "alt_km": 755.5792024923212,
        "timestamp": "2025-12-19T08:58:49.722189+00:00",
        "meta_object_name": "IRIDIUM 33 DEB",
        "meta_object_id": "1997-051LJ",
        "meta_epoch": "2025-12-18T13:21:25.941600",
        "meta_mean_motion": 14.40479279,
        "meta_eccentricity": 0.00160914,
        "meta_inclination": 86.3386,
        "meta_ra_of_asc_node": 30.2656,
        "meta_arg_of_pericenter": 191.4295,
        "meta_mean_anomaly": 322.071,
        "meta_ephemeris_type": 0,
        "meta_classification_type": "U",
        "meta_norad_cat_id": 34765,
        "meta_element_set_no": 999,
        "meta_rev_at_epoch": 87697,
        "meta_bstar": 0.00029987235,
        "meta_mean_motion_dot": 9.74e-06,
        "meta_mean_motion_ddot": 0,
        "tle_line1": "1 34765U 97051LJ  25352.55655025  .00000974  00000+0  29987-3 0  9994",
        "tle_line2": "2 34765  86.3386  30.2656 0016091 191.4295 322.0710 14.40479279876970"
      },
      "geometry": {
        "type": "Point",
        "coordinates": [
          40.22669553173121,
          70.31741971016649
        ]
      }
    },
    {
      "type": "Feature",
      "properties": {
        "norad_id": 34833,
        "name": "IRIDIUM 33 DEB",
        "group": "iridium-33-debris",
        "lat": 78.56068367044587,
        "lon": -150.02746269029714,
        "alt_km": 696.3588500436545,
        "timestamp": "2025-12-19T08:58:49.722200+00:00",
        "meta_object_name": "IRIDIUM 33 DEB",
        "meta_object_id": "1997-051MH",
        "meta_epoch": "2025-12-18T15:01:37.300224",
        "meta_mean_motion": 14.52411468,
        "meta_eccentricity": 0.00216445,
        "meta_inclination": 86.3932,
        "meta_ra_of_asc_node": 48.4574,
        "meta_arg_of_pericenter": 80.6966,
        "meta_mean_anomaly": 71.1897,
        "meta_ephemeris_type": 0,
        "meta_classification_type": "U",
        "meta_norad_cat_id": 34833,
        "meta_element_set_no": 999,
        "meta_rev_at_epoch": 87800,
        "meta_bstar": 0.00052658219,
        "meta_mean_motion_dot": 2.172e-05,
        "meta_mean_motion_ddot": 0,
        "tle_line1": "1 34833U 97051MH  25352.62612616  .00002172  00000+0  52658-3 0  9990",
        "tle_line2": "2 34833  86.3932  48.4574 0021644  80.6966  71.1897 14.52411468878000"
      },
      "geometry": {
        "type": "Point",
        "coordinates": [
          -150.02746269029714,
          78.56068367044587
        ]
      }
    },
    {
      "type": "Feature",
      "properties": {
        "norad_id": 34870,
        "name": "IRIDIUM 33 DEB",
        "group": "iridium-33-debris",
        "lat": -71.96867694764504,
        "lon": -60.38891377507792,
        "alt_km": 655.1030576375233,
        "timestamp": "2025-12-19T08:58:49.722210+00:00",
        "meta_object_name": "IRIDIUM 33 DEB",
        "meta_object_id": "1997-051MQ",
        "meta_epoch": "2025-12-17T15:48:12.189024",
        "meta_mean_motion": 14.76525212,
        "meta_eccentricity": 0.00169592,
        "meta_inclination": 86.3102,
        "meta_ra_of_asc_node": 311.8309,
        "meta_arg_of_pericenter": 164.6796,
        "meta_mean_anomaly": 8.9227,
        "meta_ephemeris_type": 0,
        "meta_classification_type": "U",
        "meta_norad_cat_id": 34870,
        "meta_element_set_no": 999,
        "meta_rev_at_epoch": 88983,
        "meta_bstar": 0.0011120343,
        "meta_mean_motion_dot": 7.793e-05,
        "meta_mean_motion_ddot": 0,
        "tle_line1": "1 34870U 97051MQ  25351.65847441  .00007793  00000+0  11120-2 0  9991",
        "tle_line2": "2 34870  86.3102 311.8309 0016959 164.6796   8.9227 14.76525212889837"
      },
      "geometry": {
        "type": "Point",
        "coordinates": [
          -60.38891377507792,
          -71.96867694764504
        ]
      }
    },
    {
      "type": "Feature",
      "properties": {
        "norad_id": 34896,
        "name": "IRIDIUM 33 DEB",
        "group": "iridium-33-debris",
        "lat": -65.7649761821667,
        "lon": 151.9097293540738,
        "alt_km": 670.0937630577682,
        "timestamp": "2025-12-19T08:58:49.722221+00:00",
        "meta_object_name": "IRIDIUM 33 DEB",
        "meta_object_id": "1997-051MY",
        "meta_epoch": "2025-12-17T17:20:43.717344",
        "meta_mean_motion": 14.6632638,
        "meta_eccentricity": 0.00248916,
        "meta_inclination": 86.3286,
        "meta_ra_of_asc_node": 324.4498,
        "meta_arg_of_pericenter": 196.3048,
        "meta_mean_anomaly": 337.3904,
        "meta_ephemeris_type": 0,
        "meta_classification_type": "U",
        "meta_norad_cat_id": 34896,
        "meta_element_set_no": 999,
        "meta_rev_at_epoch": 87692,
        "meta_bstar": 0.00069874419,
        "meta_mean_motion_dot": 3.895e-05,
        "meta_mean_motion_ddot": 0,
        "tle_line1": "1 34896U 97051MY  25351.72272821  .00003895  00000+0  69874-3 0  9990",
        "tle_line2": "2 34896  86.3286 324.4498 0024891 196.3048 337.3904 14.66326380876924"
      },
      "geometry": {
        "type": "Point",
        "coordinates": [
          151.9097293540738,
          -65.7649761821667
        ]
      }
    },
    {
      "type": "Feature",
      "properties": {
        "norad_id": 34926,
        "name": "IRIDIUM 33 DEB",
        "group": "iridium-33-debris",
        "lat": 52.722174279493146,
        "lon": 10.296788613053197,
        "alt_km": 747.5917497876771,
        "timestamp": "2025-12-19T08:58:49.722231+00:00",
        "meta_object_name": "IRIDIUM 33 DEB",
        "meta_object_id": "1997-051NF",
        "meta_epoch": "2025-12-18T12:00:33.859296",
        "meta_mean_motion": 14.54673553,
        "meta_eccentricity": 0.007466,
        "meta_inclination": 86.1318,
        "meta_ra_of_asc_node": 5.6024,
        "meta_arg_of_pericenter": 272.8788,
        "meta_mean_anomaly": 246.5366,
        "meta_ephemeris_type": 0,
        "meta_classification_type": "U",
        "meta_norad_cat_id": 34926,
        "meta_element_set_no": 999,
        "meta_rev_at_epoch": 86540,
        "meta_bstar": 0.0047273408,
        "meta_mean_motion_dot": 0.00021041,
        "meta_mean_motion_ddot": 0,
        "tle_line1": "1 34926U 97051NF  25352.50039189  .00021041  00000+0  47273-2 0  9990",
        "tle_line2": "2 34926  86.1318   5.6024 0074660 272.8788 246.5366 14.54673553865403"
      },
      "geometry": {
        "type": "Point",
        "coordinates": [
          10.296788613053197,
          52.722174279493146
        ]
      }
    },
    {
      "type": "Feature",
      "properties": {
        "norad_id": 34985,
        "name": "IRIDIUM 33 DEB",
        "group": "iridium-33-debris",
        "lat": -58.117448290309326,
        "lon": -120.09201347770738,
        "alt_km": 747.4371178620086,
        "timestamp": "2025-12-19T08:58:49.722242+00:00",
        "meta_object_name": "IRIDIUM 33 DEB",
        "meta_object_id": "1997-051NR",
        "meta_epoch": "2025-12-18T03:42:15.992064",
        "meta_mean_motion": 14.42032375,
        "meta_eccentricity": 0.00213063,
        "meta_inclination": 86.3697,
        "meta_ra_of_asc_node": 54.5701,
        "meta_arg_of_pericenter": 201.5738,
        "meta_mean_anomaly": 187.9746,
        "meta_ephemeris_type": 0,
        "meta_classification_type": "U",
        "meta_norad_cat_id": 34985,
        "meta_element_set_no": 999,
        "meta_rev_at_epoch": 87253,
        "meta_bstar": 0.00049263148,
        "meta_mean_motion_dot": 1.64e-05,
        "meta_mean_motion_ddot": 0,
        "tle_line1": "1 34985U 97051NR  25352.15435176  .00001640  00000+0  49263-3 0  9997",
        "tle_line2": "2 34985  86.3697  54.5701 0021306 201.5738 187.9746 14.42032375872538"
      },
      "geometry": {
        "type": "Point",
        "coordinates": [
          -120.09201347770738,
          -58.117448290309326
        ]
      }
    },
    {
      "type": "Feature",
      "properties": {
        "norad_id": 35051,
        "name": "IRIDIUM 33 DEB",
        "group": "iridium-33-debris",
        "lat": -55.886235292741716,
        "lon": 0.5245779607541171,
        "alt_km": 745.1755186803994,
        "timestamp": "2025-12-19T08:58:49.722252+00:00",
        "meta_object_name": "IRIDIUM 33 DEB",
        "meta_object_id": "1997-051NX",
        "meta_epoch": "2025-12-18T08:21:17.640576",
        "meta_mean_motion": 14.47622573,
        "meta_eccentricity": 0.00105215,
        "meta_inclination": 86.324,
        "meta_ra_of_asc_node": 6.4175,
        "meta_arg_of_pericenter": 75.5745,
        "meta_mean_anomaly": 284.6625,
        "meta_ephemeris_type": 0,
        "meta_classification_type": "U",
        "meta_norad_cat_id": 35051,
        "meta_element_set_no": 999,
        "meta_rev_at_epoch": 87077,
        "meta_bstar": 0.00050498814,
        "meta_mean_motion_dot": 1.881e-05,
        "meta_mean_motion_ddot": 0,
        "tle_line1": "1 35051U 97051NX  25352.34812084  .00001881  00000+0  50499-3 0  9990",
        "tle_line2": "2 35051  86.3240   6.4175 0010521  75.5745 284.6625 14.47622573870777"
      },
      "geometry": {
        "type": "Point",
        "coordinates": [
          0.5245779607541171,
          -55.886235292741716
        ]
      }
    }
  ]
}